{"type": "FeatureCollection", "features": [ {"type": "Feature", "properties": {"norad_id": 43648, "name": "BEIDOU-3 M15 (C34)", "group": "gnss", "lat": 39.28042918086762, "lon": 90.35282546459506, "alt_km": 21526.815284523684, "timestamp": "2025-12-15T04:01:20.696486+00:00", "meta": {"OBJECT_NAME": "BEIDOU-3 M15 (C34)", "OBJECT_ID": "2018-078B", "EPOCH": "2025-12-13T08:45:25.856640", "MEAN_MOTION": 1.86231926, "ECCENTRICITY": 0.00036912, "INCLINATION": 54.2569, "RA_OF_ASC_NODE": 306.4995, "ARG_OF_PERICENTER": 17.9309, "MEAN_ANOMALY": 342.0718, "EPHEMERIS_TYPE": 0, "CLASSIFICATION_TYPE": "U", "NORAD_CAT_ID": 43648, "ELEMENT_SET_NO": 999, "REV_AT_EPOCH": 4871, "BSTAR": 0, "MEAN_MOTION_DOT": -9.7e-07, "MEAN_MOTION_DDOT": 0}, "tle": {"line1": "1 43648U 18078B   25347.36488260 -.00000097  00000+0  00000+0 0  9992", "line2": "2 43648  54.2569 306.4995 0003691  17.9309 342.0718  1.86231926 48715"}}, "geometry": {"type": "Point", "coordinates": [90.35282546459506, 39.28042918086762]}}, {"type": "Feature", "properties": {"norad_id": 43683, "name": "BEIDOU-3 G1 (C59)", "group": "gnss", "lat": -0.09081113656716752, "lon": -75.52080008387284, "alt_km": 35790.49064533912, "timestamp": "2025-12-15T04:01:20.696505+00:00", "meta": {"OBJECT_NAME": "BEIDOU-3 G1 (C59)", "OBJECT_ID": "2018-085A", "EPOCH": "2025-12-14T07:14:10.489920", "MEAN_MOTION": 1.00270348, "ECCENTRICITY": 0.00016641, "INCLINATION": 2.6118, "RA_OF_ASC_NODE": 102.9251, "ARG_OF_PERICENTER": 57.6776, "MEAN_ANOMALY": 171.227, "EPHEMERIS_TYPE": 0, "CLASSIFICATION_TYPE": "U", "NORAD_CAT_ID": 43683, "ELEMENT_SET_NO": 999, "REV_AT_EPOCH": 2620, "BSTAR": 0, "MEAN_MOTION_DOT": -2.6e-06, "MEAN_MOTION_DDOT": 0}, "tle": {"line1": "1 43683U 18085A   25348.30151030 -.00000260  00000+0  00000+0 0  9998", "line2": "2 43683   2.6118 102.9251 0001664  57.6776 171.2270  1.00270348 26204"}}, "geometry": {"type": "Point", "coordinates": [-75.52080008387284, -0.09081113656716752]}}, {"type": "Feature", "properties": {"norad_id": 43687, "name": "COSMOS 2529 (757)", "group": "gnss", "lat": -42.97739639370452, "lon": 172.137727138714, "alt_km": 19125.07616051397, "timestamp": "2025-12-15T04:01:20.696523+00:00", "meta": {"OBJECT_NAME": "COSMOS 2529 (757)", "OBJECT_ID": "2018-086A", "EPOCH": "2025-12-11T22:43:29.696736", "MEAN_MOTION": 2.1310189, "ECCENTRICITY": 0.00071924, "INCLINATION": 64.292, "RA_OF_ASC_NODE": 198.9152, "ARG_OF_PERICENTER": 254.1119, "MEAN_ANOMALY": 105.8792, "EPHEMERIS_TYPE": 0, "CLASSIFICATION_TYPE": "U", "NORAD_CAT_ID": 43687, "ELEMENT_SET_NO": 999, "REV_AT_EPOCH": 5529, "BSTAR": 0, "MEAN_MOTION_DOT": 6.1e-07, "MEAN_MOTION_DDOT": 0}, "tle": {"line1": "1 43687U 18086A   25345.94687149  .00000061  00000+0  00000+0 0  9993", "line2": "2 43687  64.2920 198.9152 0007192 254.1119 105.8792  2.13101890 55298"}}, "geometry": {"type": "Point", "coordinates": [172.137727138714, -42.97739639370452]}}, {"type": "Feature", "properties": {"norad_id": 43706, "name": "BEIDOU-3 M17 (C36)", "group": "gnss", "lat": 17.93664911385158, "lon": -157.92769373530498, "alt_km": 21521.645695365893, "timestamp": "2025-12-15T04:01:20.696541+00:00", "meta": {"OBJECT_NAME": "BEIDOU-3 M17 (C36)", "OBJECT_ID": "2018-093A", "EPOCH": "2025-12-12T04:17:11.485824", "MEAN_MOTION": 1.86228421, "ECCENTRICITY": 0.00062217, "INCLINATION": 54.1726, "RA_OF_ASC_NODE": 188.6407, "ARG_OF_PERICENTER": 307.45, "MEAN_ANOMALY": 230.9206, "EPHEMERIS_TYPE": 0, "CLASSIFICATION_TYPE": "U", "NORAD_CAT_ID": 43706, "ELEMENT_SET_NO": 999, "REV_AT_EPOCH": 4805, "BSTAR": 0, "MEAN_MOTION_DOT": 7.8e-07, "MEAN_MOTION_DDOT": 0}, "tle": {"line1": "1 43706U 18093A   25346.17860516  .00000078  00000+0  00000+0 0  9998", "line2": "2 43706  54.1726 188.6407 0006221 307.4500 230.9206  1.86228421 48054"}}, "geometry": {"type": "Point", "coordinates": [-157.92769373530498, 17.93664911385158]}}, {"type": "Feature", "properties": {"norad_id": 43707, "name": "BEIDOU-3 M18 (C37)", "group": "gnss", "lat": 47.15783696349346, "lon": -42.64494725434707, "alt_km": 21532.224136670764, "timestamp": "2025-12-15T04:01:20.696558+00:00", "meta": {"OBJECT_NAME": "BEIDOU-3 M18 (C37)", "OBJECT_ID": "2018-093B", "EPOCH": "2025-12-12T20:21:07.427232", "MEAN_MOTION": 1.86226583, "ECCENTRICITY": 0.00063344, "INCLINATION": 54.1732, "RA_OF_ASC_NODE": 188.6097, "ARG_OF_PERICENTER": 352.9631, "MEAN_ANOMALY": 7.0898, "EPHEMERIS_TYPE": 0, "CLASSIFICATION_TYPE": "U", "NORAD_CAT_ID": 43707, "ELEMENT_SET_NO": 999, "REV_AT_EPOCH": 4806, "BSTAR": 0, "MEAN_MOTION_DOT": 8.8e-07, "MEAN_MOTION_DDOT": 0}, "tle": {"line1": "1 43707U 18093B   25346.84800263  .00000088  00000+0  00000+0 0  9997", "line2": "2 43707  54.1732 188.6097 0006334 352.9631   7.0898  1.86226583 48060"}}, "geometry": {"type": "Point", "coordinates": [-42.64494725434707, 47.15783696349346]}}, {"type": "Feature", "properties": {"norad_id": 43873, "name": "GPS BIII-1  (PRN 04)", "group": "gnss", "lat": 55.1247207039461, "lon": -160.0374654198335, "alt_km": 20191.765739134556, "timestamp": "2025-12-15T04:01:20.696578+00:00", "meta": {"OBJECT_NAME": "GPS BIII-1  (PRN 04)", "OBJECT_ID": "2018-109A", "EPOCH": "2025-12-12T07:06:10.304640", "MEAN_MOTION": 2.00553613, "ECCENTRICITY": 0.0037314, "INCLINATION": 55.5671, "RA_OF_ASC_NODE": 99.5642, "ARG_OF_PERICENTER": 194.9554, "MEAN_ANOMALY": 348.038, "EPHEMERIS_TYPE": 0, "CLASSIFICATION_TYPE": "U", "NORAD_CAT_ID": 43873, "ELEMENT_SET_NO": 999, "REV_AT_EPOCH": 5132, "BSTAR": 0, "MEAN_MOTION_DOT": -2e-08, "MEAN_MOTION_DDOT": 0}, "tle": {"line1": "1 43873U 18109A   25346.29595260 -.00000002  00000+0  00000+0 0  9993", "line2": "2 43873  55.5671  99.5642 0037314 194.9554 348.0380  2.00553613 51328"}}, "geometry": {"type": "Point", "coordinates": [-160.0374654198335, 55.1247207039461]}}, {"type": "Feature", "properties": {"norad_id": 44204, "name": "BEIDOU-3 IGSO-1 (C38)", "group": "gnss", "lat": -31.345562502023252, "lon": -118.45427382382958, "alt_km": 35684.09640712215, "timestamp": "2025-12-15T04:01:20.696596+00:00", "meta": {"OBJECT_NAME": "BEIDOU-3 IGSO-1 (C38)", "OBJECT_ID": "2019-023A", "EPOCH": "2025-11-19T14:15:02.708640", "MEAN_MOTION": 1.00252177, "ECCENTRICITY": 0.0026966, "INCLINATION": 58.4003, "RA_OF_ASC_NODE": 39.8168, "ARG_OF_PERICENTER": 221.2202, "MEAN_ANOMALY": 126.9723, "EPHEMERIS_TYPE": 0, "CLASSIFICATION_TYPE": "U", "NORAD_CAT_ID": 44204, "ELEMENT_SET_NO": 999, "REV_AT_EPOCH": 510, "BSTAR": 0, "MEAN_MOTION_DOT": -2.26e-06, "MEAN_MOTION_DDOT": 0}, "tle": {"line1": "1 44204U 19023A   25323.59378135 -.00000226  00000+0  00000+0 0  9994", "line2": "2 44204  58.4003  39.8168 0026966 221.2202 126.9723  1.00252177  5102"}}, "geometry": {"type": "Point", "coordinates": [-118.45427382382958, -31.345562502023252]}}, {"type": "Feature", "properties": {"norad_id": 44231, "name": "BEIDOU-2 G8 (C01)", "group": "gnss", "lat": -0.9518517415905654, "lon": -71.21437019962295, "alt_km": 35760.44604536781, "timestamp": "2025-12-15T04:01:20.696620+00:00", "meta": {"OBJECT_NAME": "BEIDOU-2 G8 (C01)", "OBJECT_ID": "2019-027A", "EPOCH": "2025-12-14T07:15:25.370208", "MEAN_MOTION": 1.00267584, "ECCENTRICITY": 0.00087417, "INCLINATION": 1.6661, "RA_OF_ASC_NODE": 74.7118, "ARG_OF_PERICENTER": 256.8428, "MEAN_ANOMALY": 4.9977, "EPHEMERIS_TYPE": 0, "CLASSIFICATION_TYPE": "U", "NORAD_CAT_ID": 44231, "ELEMENT_SET_NO": 999, "REV_AT_EPOCH": 2422, "BSTAR": 0, "MEAN_MOTION_DOT": -2.31e-06, "MEAN_MOTION_DDOT": 0}, "tle": {"line1": "1 44231U 19027A   25348.30237697 -.00000231  00000+0  00000+0 0  9997", "line2": "2 44231   1.6661  74.7118 0008741 256.8428   4.9977  1.00267584 24228"}}, "geometry": {"type": "Point", "coordinates": [-71.21437019962295, -0.9518517415905654]}}, {"type": "Feature", "properties": {"norad_id": 44299, "name": "COSMOS 2534 (758)", "group": "gnss", "lat": 63.94160007653933, "lon": -82.09061014623825, "alt_km": 19144.78341488014, "timestamp": "2025-12-15T04:01:20.696644+00:00", "meta": {"OBJECT_NAME": "COSMOS 2534 (758)", "OBJECT_ID": "2019-030A", "EPOCH": "2025-12-10T14:34:24.563136", "MEAN_MOTION": 2.13102261, "ECCENTRICITY": 0.0008999, "INCLINATION": 64.3653, "RA_OF_ASC_NODE": 198.9649, "ARG_OF_PERICENTER": 283.4628, "MEAN_ANOMALY": 263.2195, "EPHEMERIS_TYPE": 0, "CLASSIFICATION_TYPE": "U", "NORAD_CAT_ID": 44299, "ELEMENT_SET_NO": 999, "REV_AT_EPOCH": 5090, "BSTAR": 0, "MEAN_MOTION_DOT": 4.7e-07, "MEAN_MOTION_DDOT": 0}, "tle": {"line1": "1 44299U 19030A   25344.60722874  .00000047  00000+0  00000+0 0  9994", "line2": "2 44299  64.3653 198.9649 0008999 283.4628 263.2195  2.13102261 50901"}}, "geometry": {"type": "Point", "coordinates": [-82.09061014623825, 63.94160007653933]}}, {"type": "Feature", "properties": {"norad_id": 44337, "name": "BEIDOU-3 IGSO-2 (C39)", "group": "gnss", "lat": 53.10764410488994, "lon": -87.49472925463522, "alt_km": 35805.663223061034, "timestamp": "2025-12-15T04:01:20.696663+00:00", "meta": {"OBJECT_NAME": "BEIDOU-3 IGSO-2 (C39)", "OBJECT_ID": "2019-035A", "EPOCH": "2025-12-13T21:01:33.834720", "MEAN_MOTION": 1.00271067, "ECCENTRICITY": 0.00372664, "INCLINATION": 55.226, "RA_OF_ASC_NODE": 160.4907, "ARG_OF_PERICENTER": 202.3075, "MEAN_ANOMALY": 154.8952, "EPHEMERIS_TYPE": 0, "CLASSIFICATION_TYPE": "U", "NORAD_CAT_ID": 44337, "ELEMENT_SET_NO": 999, "REV_AT_EPOCH": 2380, "BSTAR": 0, "MEAN_MOTION_DOT": -3.9e-07, "MEAN_MOTION_DDOT": 0}, "tle": {"line1": "1 44337U 19035A   25347.87608605 -.00000039  00000+0  00000+0 0  9991", "line2": "2 44337  55.2260 160.4907 0037266 202.3075 154.8952  1.00271067 23804"}}, "geometry": {"type": "Point", "coordinates": [-87.49472925463522, 53.10764410488994]}}]}